{
  "norad_id": 59777,
  "name": "2024-092E",
  "history": [
    {
      "epoch": "2026-03-28T21:10:24.905280Z",
      "apogee_km": 470.0800309688475,
      "perigee_km": 458.6079273591813,
      "latitude_deg": 7.724574676177753e-05,
      "longitude_deg": 73.94731354087854,
      "height_km": 466.5275944265447,
      "semi_major_axis_km": 6842.480979164014,
      "eccentricity": 0.0008383,
      "inclination_deg": 97.6448,
      "raan_deg": 217.8474,
      "arg_perigee_deg": 80.9595,
      "mean_anomaly_deg": 279.2596,
      "mean_motion_rev_day": 15.33848139
    },
    {
      "epoch": "2026-03-29T05:00:07.250400Z",
      "apogee_km": 469.99907539975356,
      "perigee_km": 458.5544541368017,
      "latitude_deg": 1.9936212783135746e-05,
      "longitude_deg": -43.46281891257197,
      "height_km": 466.31964665045405,
      "semi_major_axis_km": 6842.413764768277,
      "eccentricity": 0.0008363,
      "inclination_deg": 97.6449,
      "raan_deg": 218.1852,
      "arg_perigee_deg": 79.5061,
      "mean_anomaly_deg": 280.7123,
      "mean_motion_rev_day": 15.3387074
    },
    {
      "epoch": "2026-03-30T06:03:08.371872Z",
      "apogee_km": 469.7652064998392,
      "perigee_km": 458.4356928858888,
      "latitude_deg": -7.226104579500309e-07,
      "longitude_deg": -59.16576799932622,
      "height_km": 465.81698967817033,
      "semi_major_axis_km": 6842.237449692864,
      "eccentricity": 0.00082791,
      "inclination_deg": 97.6455,
      "raan_deg": 219.2657,
      "arg_perigee_deg": 76.0145,
      "mean_anomaly_deg": 284.2017,
      "mean_motion_rev_day": 15.33930029
    },
    {
      "epoch": "2026-03-30T07:37:04.592064Z",
      "apogee_km": 469.7520830516087,
      "perigee_km": 458.4295644488666,
      "latitude_deg": -8.113189529941707e-05,
      "longitude_deg": -82.64680558379199,
      "height_km": 465.79337992721236,
      "semi_major_axis_km": 6842.227823750238,
      "eccentricity": 0.0008274,
      "inclination_deg": 97.6455,
      "raan_deg": 219.3332,
      "arg_perigee_deg": 75.8593,
      "mean_anomaly_deg": 284.3567,
      "mean_motion_rev_day": 15.33933266
    },
    {
      "epoch": "2026-03-30T21:42:29.759904Z",
      "apogee_km": 469.6441125647798,
      "perigee_km": 458.3225928595539,
      "latitude_deg": -7.323737416172804e-05,
      "longitude_deg": 66.02705897998685,
      "height_km": 465.530265408735,
      "semi_major_axis_km": 6842.120352712166,
      "eccentricity": 0.00082734,
      "inclination_deg": 97.6456,
      "raan_deg": 219.9406,
      "arg_perigee_deg": 74.2256,
      "mean_anomaly_deg": 285.9897,
      "mean_motion_rev_day": 15.33969407
    },
    {
      "epoch": "2026-03-31T21:11:29.362272Z",
      "apogee_km": 469.47017857860465,
      "perigee_km": 458.1932457472185,
      "latitude_deg": -2.2843308293365742e-05,
      "longitude_deg": 73.82708870821413,
      "height_km": 465.06557236922737,
      "semi_major_axis_km": 6841.968712162911,
      "eccentricity": 0.0008241,
      "inclination_deg": 97.6458,
      "raan_deg": 220.9534,
      "arg_perigee_deg": 70.8208,
      "mean_anomaly_deg": 289.3925,
      "mean_motion_rev_day": 15.34020404
    },
    {
      "epoch": "2026-04-01T08:09:00.188064Z",
      "apogee_km": 469.3981166627864,
      "perigee_km": 458.14454583954466,
      "latitude_deg": 5.3544834743468223e-05,
      "longitude_deg": -90.5285138856082,
      "height_km": 464.83218814596876,
      "semi_major_axis_km": 6841.908331251166,
      "eccentricity": 0.0008224,
      "inclination_deg": 97.6459,
      "raan_deg": 221.4263,
      "arg_perigee_deg": 68.9,
      "mean_anomaly_deg": 291.3121,
      "mean_motion_rev_day": 15.34040711
    },
    {
      "epoch": "2026-04-02T18:35:24.372960Z",
      "apogee_km": 469.0679860732953,
      "perigee_km": 457.9475766456735,
      "latitude_deg": 5.710744095908235e-05,
      "longitude_deg": 112.94171394266478,
      "height_km": 464.1728604998007,
      "semi_major_axis_km": 6841.644781359484,
      "eccentricity": 0.0008127,
      "inclination_deg": 97.6464,
      "raan_deg": 222.9117,
      "arg_perigee_deg": 64.1732,
      "mean_anomaly_deg": 296.0348,
      "mean_motion_rev_day": 15.34129352
    },
    {
      "epoch": "2026-04-02T21:43:15.227040Z",
      "apogee_km": 469.00875806253134,
      "perigee_km": 457.9003395284144,
      "latitude_deg": -7.3867991135939e-06,
      "longitude_deg": 65.98645355285501,
      "height_km": 464.08021795670646,
      "semi_major_axis_km": 6841.591548795473,
      "eccentricity": 0.00081183,
      "inclination_deg": 97.6467,
      "raan_deg": 223.0469,
      "arg_perigee_deg": 63.6893,
      "mean_anomaly_deg": 296.5182,
      "mean_motion_rev_day": 15.34147257
    },
    {
      "epoch": "2026-04-03T14:56:23.808192Z",
      "apogee_km": 468.8553360246333,
      "perigee_km": 457.76534988170533,
      "latitude_deg": 9.738393798187166e-05,
      "longitude_deg": 167.7364235146925,
      "height_km": 463.7272125419766,
      "semi_major_axis_km": 6841.447342953169,
      "eccentricity": 0.0008105,
      "inclination_deg": 97.647,
      "raan_deg": 223.7898,
      "arg_perigee_deg": 61.2031,
      "mean_anomaly_deg": 299.0025,
      "mean_motion_rev_day": 15.34195763
    },
    {
      "epoch": "2026-04-04T20:40:50.253600Z",
      "apogee_km": 468.55191468276007,
      "perigee_km": 457.6100706253101,
      "latitude_deg": -5.557357738838287e-05,
      "longitude_deg": 81.68804759293161,
      "height_km": 463.18060801804745,
      "semi_major_axis_km": 6841.217992654035,
      "eccentricity": 0.0007997,
      "inclination_deg": 97.647,
      "raan_deg": 225.073,
      "arg_perigee_deg": 56.879,
      "mean_anomaly_deg": 303.3218,
      "mean_motion_rev_day": 15.34272914
    },
    {
      "epoch": "2026-04-05T07:38:14.538912Z",
      "apogee_km": 468.441118151678,
      "perigee_km": 457.56097220462743,
      "latitude_deg": 9.55756236588714e-06,
      "longitude_deg": -82.6403281704772,
      "height_km": 462.9737700629269,
      "semi_major_axis_km": 6841.138045178152,
      "eccentricity": 0.0007952,
      "inclination_deg": 97.6471,
      "raan_deg": 225.5458,
      "arg_perigee_deg": 55.0466,
      "mean_anomaly_deg": 305.1522,
      "mean_motion_rev_day": 15.34299809
    },
    {
      "epoch": "2026-04-05T20:09:32.984640Z",
      "apogee_km": 468.3421899805435,
      "perigee_km": 457.5073163758598,
      "latitude_deg": -8.770699875326668e-05,
      "longitude_deg": 89.55907502037962,
      "height_km": 462.7633529640335,
      "semi_major_axis_km": 6841.061753178201,
      "eccentricity": 0.0007919,
      "inclination_deg": 97.6473,
      "raan_deg": 226.0863,
      "arg_perigee_deg": 53.1197,
      "mean_anomaly_deg": 307.0769,
      "mean_motion_rev_day": 15.34325475
    },
    {
      "epoch": "2026-04-06T07:06:56.027520Z",
      "apogee_km": 468.27038579798773,
      "perigee_km": 457.44683618210365,
      "latitude_deg": 4.012841129729582e-05,
      "longitude_deg": -74.76371846331595,
      "height_km": 462.58854634071366,
      "semi_major_axis_km": 6840.995610990046,
      "eccentricity": 0.00079108,
      "inclination_deg": 97.6474,
      "raan_deg": 226.5595,
      "arg_perigee_deg": 51.6177,
      "mean_anomaly_deg": 308.5775,
      "mean_motion_rev_day": 15.34347727
    },
    {
      "epoch": "2026-04-07T08:09:29.404224Z",
      "apogee_km": 468.0783656467165,
      "perigee_km": 457.3426132306913,
      "latitude_deg": -1.7185050295010235e-05,
      "longitude_deg": -90.35024638051716,
      "height_km": 462.22953075372106,
      "semi_major_axis_km": 6840.847489438704,
      "eccentricity": 0.00078468,
      "inclination_deg": 97.6473,
      "raan_deg": 227.6405,
      "arg_perigee_deg": 48.285,
      "mean_anomaly_deg": 311.9062,
      "mean_motion_rev_day": 15.34397561
    },
    {
      "epoch": "2026-04-07T20:40:45.187104Z",
      "apogee_km": 467.97033604484295,
      "perigee_km": 457.3493148936195,
      "latitude_deg": -4.615396888133988e-06,
      "longitude_deg": 81.85996712709812,
      "height_km": 462.1008782451313,
      "semi_major_axis_km": 6840.7968254692305,
      "eccentricity": 0.0007763,
      "inclination_deg": 97.6472,
      "raan_deg": 228.1807,
      "arg_perigee_deg": 46.5758,
      "mean_anomaly_deg": 313.6129,
      "mean_motion_rev_day": 15.34414607
    },
    {
      "epoch": "2026-04-08T07:38:05.948160Z",
      "apogee_km": 467.91635852269064,
      "perigee_km": 457.2842110052188,
      "latitude_deg": 3.3967123512744996e-05,
      "longitude_deg": -82.45328117383805,
      "height_km": 461.9095776289651,
      "semi_major_axis_km": 6840.737284763954,
      "eccentricity": 0.00077712,
      "inclination_deg": 97.6472,
      "raan_deg": 228.6539,
      "arg_perigee_deg": 44.6402,
      "mean_anomaly_deg": 315.5465,
      "mean_motion_rev_day": 15.3443464
    }
  ]
}